84P/Giclas,e,7.5523,108.1750,281.5567,3.547486,0.1475105,0.51546688,342.6229,02/07.0/2020,2000,g  9.5,8.0
# From MPC109147
86P/Wild,e,15.4759,72.3774,179.2963,3.604463,0.1440268,0.37264973,254.6827,02/07.0/2020,2000,g 11.0,6.0
# From MPC105241
87P/Bus,e,2.6023,181.8619,24.9235,3.437875,0.1546212,0.38919935,345.7389,02/07.0/2020,2000,g  7.2,10.0
# From MPEC 2019-JE2
88P/Howell,e,4.3838,56.6857,235.9157,3.105284,0.1801159,0.56424520,318.0989,02/07.0/2020,2000,g 11.0,6.0
# From MPC100283
89P/Russell,e,12.0717,41.4231,250.2471,3.753933,0.1355109,0.40865843,155.6404,02/07.0/2020,2000,g 11.5,6.0
# From MPC107051
90P/Gehrels,e,9.6390,13.2193,29.1374,6.056887,0.0661196,0.50949287,63.6859,02/07.0/2020,2000,g  8.5,6.0
# From MPC105241
91P/Russell,e,14.0916,247.8287,354.7662,3.890676,0.1284300,0.33059168,324.5194,02/07.0/2020,2000,g  7.5,6.0
# From MPEC 2014-J58
92P/Sanguin,e,19.4718,181.3972,163.7062,5.346170,0.0797333,0.66025987,143.7380,02/07.0/2020,2000,g 12.0,6.0
# From NK 2707
93P/Lovas,e,12.2006,339.6211,74.8868,4.385310,0.1073257,0.61201462,115.1772,02/07.0/2020,2000,g  9.0,4.0
# From MPEC 2013-O31
94P/Russell,e,6.1878,70.8606,92.5278,3.507004,0.1500720,0.36470229,179.8774,02/07.0/2020,2000,g  9.0,4.0
# From MPC 75717
95P/Chiron,e,6.9417,209.2348,339.8157,13.68103,0.0194772,0.37925691,170.6142,02/07.0/2020,2000,g  6.5,2.0
# From MPEC 2017-T14
96P/Machholz,e,58.5841,94.3205,14.6203,3.028825,0.1869790,0.96089958,155.6607,02/07.0/2020,2000,g  9.0,4.0
# From MPC 77020
97P/Metcalf-Brewington,e,17.8581,184.5192,228.9907,4.789383,0.0940340,0.46113471,290.6031,02/07.0/2020,2000,g  5.5,6.0
# From MPEC 2013-H38
98P/Takamizawa,e,10.5612,114.7104,157.9036,3.799324,0.1330898,0.56219461,315.6925,02/07.0/2020,2000,g  9.0,8.0
# From MPC 75718
99P/Kowal,e,4.3378,28.1324,174.8787,6.115487,0.0651715,0.23053768,308.1791,02/07.0/2020,2000,g  4.5,6.0
# From MPEC 2013-O31
100P/Hartley,e,25.5759,37.7209,182.0002,3.431377,0.1550606,0.41275830,218.0155,02/07.0/2020,2000,g  9.0,4.0
# From MPC115887
101P/Chernykh,e,5.0528,116.2318,277.6953,5.796967,0.0706160,0.59549294,1.7993,02/07.0/2020,2000,g 12.0,4.8
# From MPC 86232
102P/Shoemaker,e,25.8709,339.4073,20.5489,3.815117,0.1322642,0.45771528,313.6504,02/07.0/2020,2000,g  6.5,8.0
# From MPEC 2018-HA5
103P/Hartley,e,13.5919,219.7275,181.3054,3.476879,0.1520266,0.69283434,155.5537,02/07.0/2020,2000,g  8.5,8.0
# From MPC100283
104P/Kowal,e,5.8356,210.6075,224.2542,3.198410,0.1723070,0.67267630,239.3919,02/07.0/2020,2000,g 16.0,4.0
# From MPC109147
105P/Singer Brewster,e,9.1743,192.4199,46.4544,3.466112,0.1527356,0.41003171,83.3720,02/07.0/2020,2000,g 11.5,6.0
# From MPC 92276
106P/Schuster,e,19.6039,49.1258,353.5554,3.762214,0.1350637,0.59501902,284.5842,02/07.0/2020,2000,g 14.0,4.8
# From MPEC 2015-M77
107P/Wilson-Harrington,e,2.7983,266.8174,95.3742,2.626118,0.2315969,0.63107292,144.6070,02/07.0/2020,2000,g  9.0,4.0
# From MPC 89313
108P/Ciffreo,e,11.5088,50.7255,354.1498,3.740028,0.1362674,0.55852458,280.9520,02/07.0/2020,2000,g  8.0,12.0
# From  105, 420
109P/Swift-Tuttle,e,113.8614,139.1388,152.8802,26.10085,0.0073913,0.96326574,73.4062,02/07.0/2020,2000,g  4.0,6.0
# From MPC 92276
110P/Hartley,e,11.7075,287.5343,167.4142,3.601147,0.1442257,0.31767252,270.6671,02/07.0/2020,2000,g  1.0,12.0
# From MPC 75718
111P/Helin-Roman-Crockett,e,4.2275,89.7629,1.2496,4.143678,0.1168490,0.10538279,301.9917,02/07.0/2020,2000,g  5.0,8.0
# From MPC118097
112P/Urata-Niijima,e,24.1908,31.8499,21.5003,3.526152,0.1488513,0.58974477,359.8562,02/07.0/2020,2000,g 14.0,6.0
# From MPEC 2015-E14
113P/Spitaler,e,5.1907,307.4127,115.3763,3.680724,0.1395739,0.43637534,243.6075,02/07.0/2020,2000,g 13.5,4.0
# From MPEC 2019-TG9
114P/Wiseman-Skiff,e,18.2723,271.0598,172.8131,3.547493,0.1475101,0.55478346,3.5278,02/07.0/2020,2000,g 11.5,6.0
# From MPC105241
115P/Maury,e,11.6744,176.0350,121.0318,4.274222,0.1115369,0.51880912,340.6108,02/07.0/2020,2000,g 10.5,6.0
# From MPC106348
116P/Wild,e,3.6047,21.0006,173.3993,3.487952,0.1513033,0.37107179,225.2060,02/07.0/2020,2000,g  2.5,10.0
# From MPEC 2015-S97
117P/Helin-Roman-Alu,e,8.7011,58.8620,222.6614,4.087978,0.1192453,0.25569285,254.9987,02/07.0/2020,2000,g  9.0,4.0
# From MPC 95735
118P/Shoemaker-Levy,e,8.9745,145.7698,308.3079,3.420759,0.1557831,0.45087971,202.7525,02/07.0/2020,2000,g 12.0,4.0
# From MPC 84628
119P/Parker-Hartley,e,7.4312,105.0374,321.6010,3.794173,0.1333609,0.42490233,242.5770,02/07.0/2020,2000,g  3.5,8.0
# From MPC 80901
120P/Mueller,e,8.4791,358.7522,36.2191,3.971434,0.1245326,0.37550063,303.4428,02/07.0/2020,2000,g 12.0,4.0
# From MPC100283
121P/Shoemaker-Holt,e,20.1645,94.1429,11.2173,4.587678,0.1003032,0.18458195,235.9482,02/07.0/2020,2000,g  6.5,8.0
# From MPC 75718
122P/de Vico,e,84.6040,79.5067,13.0268,17.63667,0.0133070,0.96231248,118.4999,02/07.0/2020,2000,g  7.5,5.2
# From MPC114608
123P/West-Hartley,e,15.3541,46.4955,103.0988,3.860314,0.1299482,0.44877489,47.6491,02/07.0/2020,2000,g  4.0,10.0
# From MPC118097
124P/Mrkos,e,31.5123,0.3712,183.8513,3.318183,0.1630623,0.50348286,346.9741,02/07.0/2020,2000,g 13.5,2.8
# From MPEC 2015-M77
125P/Spacewatch,e,9.9879,153.1688,87.1985,3.124599,0.1784484,0.51325034,94.2419,02/07.0/2020,2000,g  9.0,4.0
# From MPC 66205
126P/IRAS,e,45.8371,357.8388,356.4949,5.642621,0.0735331,0.69584356,268.4694,02/07.0/2020,2000,g  9.0,4.0
# From MPC 84321
127P/Holt-Olmstead,e,14.2991,13.6496,6.5700,3.449120,0.1538657,0.35981353,218.9682,02/07.0/2020,2000,g 11.0,6.0
# From MPC 89014
128P/Shoemaker-Holt,e,4.3654,214.2927,210.4237,4.494921,0.1034239,0.32033370,116.1785,02/07.0/2020,2000,g  8.5,4.0
# From MPEC 2019-TG9
129P/Shoemaker-Levy,e,3.4434,184.8929,308.3333,4.280071,0.1113083,0.08393809,244.9032,02/07.0/2020,2000,g 11.0,4.0
# From MPC 78188
130P/McNaught-Hughes,e,6.0645,70.2517,245.9452,3.383842,0.1583394,0.46119807,118.1180,02/07.0/2020,2000,g 10.0,6.0
# From MPC102101
131P/Mueller,e,7.3531,214.1834,179.0593,3.681926,0.1395055,0.34351299,52.8486,02/07.0/2020,2000,g 11.0,4.0
# From MPC 92985
132P/Helin-Roman-Alu,e,5.3796,174.2181,216.4078,3.879241,0.1289983,0.56587182,276.7841,02/07.0/2020,2000,g 11.0,6.0
# From MPC 94676
133P/Elst-Pizarro,e,1.3891,160.1310,131.6288,3.163032,0.1752059,0.15723687,88.2587,02/07.0/2020,2000,g 15.4,2.0
# From MPC 89012
134P/Kowal-Vavrova,e,4.3459,202.0841,18.8528,6.255967,0.0629887,0.58713494,131.4938,02/07.0/2020,2000,g 11.5,4.0
# From MPEC 2015-E14
135P/Shoemaker-Levy,e,6.0616,213.0577,22.2143,3.804672,0.1328092,0.29561558,255.1021,02/07.0/2020,2000,g  9.0,4.0
# From MPC101100
136P/Mueller,e,9.4227,137.4399,224.9065,4.196404,0.1146537,0.29187318,154.4519,02/07.0/2020,2000,g 11.0,4.0
# From MPEC 2019-VB6
137P/Shoemaker-Levy,e,4.8535,233.0740,141.0108,4.520575,0.1025448,0.57310264,43.1292,02/07.0/2020,2000,g 11.0,4.0
# From MPEC 2016-U66
138P/Shoemaker-Levy,e,10.0903,309.3294,95.6014,3.623936,0.1428675,0.53018224,40.0391,02/07.0/2020,2000,g 15.0,6.0
# From MPC108598
139P/Vaisala-Oterma,e,2.3333,242.2028,165.8463,4.526018,0.1023599,0.24620347,80.7941,02/07.0/2020,2000,g  9.5,4.0
# From MPEC 2015-E14
140P/Bowell-Skiff,e,3.8255,343.3345,172.9407,6.438698,0.0603263,0.69111862,99.2243,02/07.0/2020,2000,g 11.5,6.0
# From MPC105242
141P/Machholz,e,13.9577,241.8716,153.5533,3.056005,0.1844901,0.73593464,302.3770,02/07.0/2020,2000,g 12.0,12.0
# From MPC 95735
141P-H/Machholz,e,12.8431,246.0900,149.4500,3.008012,0.1889230,0.74682218,359.9270,08/24.0/2015,2000,g 18.5,4.0
# From MPC 71683
142P/Ge-Wang,e,12.2398,176.0976,174.0412,5.000361,0.0881459,0.49828894,319.3425,02/07.0/2020,2000,g  9.0,4.0
# From MPC 94676
143P/Kowal-Mrkos,e,4.6971,245.2860,320.5485,4.288661,0.1109741,0.41059181,71.2202,02/07.0/2020,2000,g  9.0,4.0
# From MPC104795
144P/Kushida,e,4.0519,244.5713,215.4195,3.805374,0.1327725,0.64114152,167.2223,02/07.0/2020,2000,g  8.5,8.0
# From MPC108598
145P/Shoemaker-Levy,e,11.2636,26.7936,10.2835,4.141096,0.1169583,0.54073947,104.0032,02/07.0/2020,2000,g 13.5,4.0
# From MPC100284
146P/Shoemaker-LINEAR,e,23.0787,53.4345,316.9070,4.034094,0.1216424,0.64630107,160.1927,02/07.0/2020,2000,g 15.0,4.0
# From MPC 75720
147P/Kushida-Muramatsu,e,2.3783,93.3371,351.5671,3.913910,0.1272881,0.25306870,184.5852,02/07.0/2020,2000,g 14.0,4.0
# From MPEC 2014-R70
148P/Anderson-LINEAR,e,3.6857,89.6979,6.5352,3.656630,0.1409556,0.54505532,238.8748,02/07.0/2020,2000,g  9.0,4.0
# From MPC 75720
149P/Mueller,e,29.7760,145.1951,43.9211,4.321494,0.1097118,0.39045041,38.9076,02/07.0/2020,2000,g  8.0,8.0
# From MPC 75720
150P/LONEOS,e,18.5081,272.4075,245.5927,3.880277,0.1289466,0.54649632,166.7382,02/07.0/2020,2000,g 13.5,4.0
# From MPEC 2015-Q71
151P/Helin,e,4.7257,143.1457,216.0647,5.765738,0.0711904,0.57267408,112.6471,02/07.0/2020,2000,g 10.0,6.0
# From MPC 79346
152P/Helin-Lawrence,e,9.8798,91.8702,163.7652,4.482447,0.1038559,0.30917537,286.6917,02/07.0/2020,2000,g 11.5,4.0
# From MPC 46101
153P/Ikeya-Zhang,e,27.7009,93.0407,35.2134,50.97265,0.0027083,0.98969082,0.0000,03/12.5676/2002,2000,g  9.0,4.0
# From MPC 87068
154P/Brewington,e,17.6272,343.0020,47.8676,4.804024,0.0936044,0.67495524,211.1339,02/07.0/2020,2000,g  2.5,12.0
# From MPC118098
155P/Shoemaker,e,6.3959,97.1978,14.6644,6.589178,0.0582716,0.72654622,4.8940,02/07.0/2020,2000,g 10.0,4.8
# From MPC105242
156P/Russell-LINEAR,e,17.2662,35.4155,0.3553,3.462630,0.1529660,0.61501773,316.4361,02/07.0/2020,2000,g 15.5,2.0
# From MPC104795
157P/Tritton,e,11.5402,289.0427,157.5826,3.377194,0.1588072,0.62469001,215.9344,02/07.0/2020,2000,g 10.0,4.0
# From MPEC 2016-K18
158P/Kowal-LINEAR,e,7.9019,136.0396,211.8699,4.842757,0.0924837,0.01469415,278.2395,02/07.0/2020,2000,g  9.0,4.0
# From MPEC 2019-VB6
159P/LONEOS,e,23.4608,55.0129,4.6610,5.858210,0.0695115,0.38144558,43.5010,02/07.0/2020,2000,g 10.0,4.0
# From MPEC 2019-TG9
160P/LINEAR,e,15.6159,333.3689,12.6488,3.771466,0.1345671,0.52608397,8.9779,02/07.0/2020,2000,g 15.5,2.0
# From MPC 75721
161P/Hartley-IRAS,e,95.7213,1.4320,46.9143,7.727351,0.0458837,0.83451011,245.8828,02/07.0/2020,2000,g  8.5,6.0
